NORAD_CAT_ID,OBJECT_NAME,OBJECT_TYPE,EPOCH,MEAN_MOTION,ECCENTRICITY,INCLINATION,RA_OF_ASC_NODE,ARG_OF_PERICENTER,MEAN_ANOMALY,BSTAR,MEAN_MOTION_DOT,MEAN_MOTION_DDOT,TLE_LINE0,TLE_LINE1,TLE_LINE2,SEMIMAJOR_AXIS,PERIOD,APOGEE,PERIGEE,DECAYED
51968.0,STARLINK-3681,PAYLOAD,2024-07-20 08:08:57,15.06398173,0.0001509,53.0541,188.536,95.381,264.7351,0.00020277,2.74e-05,0.0,0 STARLINK-3681,1 51968U 22025N   24202.33954920  .00002740  00000-0  20277-3 0  9999,2 51968  53.0541 188.5360 0001509  95.3810 264.7351 15.06398173132042,6925.354,95.592,548.264,546.174,0.0
51968.0,STARLINK-3681,PAYLOAD,2024-07-20 16:06:39,15.06394648,0.0001596,53.0548,187.044,86.0665,274.0507,0.00010532,1.287e-05,0.0,0 STARLINK-3681,1 51968U 22025N   24202.67128966  .00001287  00000-0  10532-3 0  9997,2 51968  53.0548 187.0440 0001596  86.0665 274.0507 15.06394648132098,6925.365,95.592,548.335,546.125,0.0
51968.0,STARLINK-3681,PAYLOAD,2024-07-21 08:02:03,15.06393524,0.0001485,53.054,184.0677,86.9336,273.1823,7.5462e-05,8.42e-06,0.0,0 STARLINK-3681,1 51968U 22025N   24203.33476164  .00000842  00000-0  75462-4 0  9997,2 51968  53.0540 184.0677 0001485  86.9336 273.1823 15.06393524131092,6925.368,95.593,548.262,546.205,0.0
51968.0,STARLINK-3681,PAYLOAD,2024-07-22 04:44:03,15.06406627,0.000146,53.0543,180.195,88.8349,271.2808,6.3264e-05,6.61e-06,0.0,0 STARLINK-3681,1 51968U 22025N   24204.19726204  .00000661  00000-0  63264-4 0  9991,2 51968  53.0543 180.1950 0001460  88.8349 271.2808 15.06406627132322,6925.328,95.592,548.204,546.182,0.0
51968.0,STARLINK-3681,PAYLOAD,2024-07-22 22:14:59,15.06397886,0.0001427,53.054,176.9188,85.3386,274.7766,0.00013303,1.7e-05,0.0,0 STARLINK-3681,1 51968U 22025N   24204.92708038  .00001700  00000-0  13303-3 0  9990,2 51968  53.0540 176.9188 0001427  85.3386 274.7766 15.06397886131338,6925.355,95.592,548.208,546.232,0.0
51968.0,STARLINK-3681,PAYLOAD,2024-07-23 03:01:36,15.06399293,0.0001416,53.0539,176.0254,85.6538,274.4613,0.00014124,1.823e-05,0.0,0 STARLINK-3681,1 51968U 22025N   24205.12612011  .00001823  00000-0  14124-3 0  9996,2 51968  53.0539 176.0254 0001416  85.6538 274.4613 15.06399293132468,6925.351,95.592,548.196,546.235,0.0
51968.0,STARLINK-3681,PAYLOAD,2024-07-24 02:54:43,15.06391752,0.0001597,53.0546,171.5592,91.251,268.8662,-1.7534e-05,-5.43e-06,0.0,0 STARLINK-3681,1 51968U 22025N   24206.12133248 -.00000543  00000-0 -17534-4 0  9996,2 51968  53.0546 171.5592 0001597  91.2510 268.8662 15.06391752132614,6925.374,95.593,548.345,546.133,0.0
51968.0,STARLINK-3681,PAYLOAD,2024-07-24 07:41:20,15.06392643,0.0001576,53.0541,170.6648,88.0167,272.1002,-7.4269e-06,-3.92e-06,0.0,0 STARLINK-3681,1 51968U 22025N   24206.32037258 -.00000392  00000-0 -74269-5 0  9993,2 51968  53.0541 170.6648 0001576  88.0167 272.1002 15.06392643131547,6925.371,95.593,548.328,546.145,0.0
51968.0,STARLINK-3681,PAYLOAD,2024-07-25 02:47:48,15.06399642,0.0001819,53.055,167.0901,117.4979,242.6195,7.0619e-05,7.7e-06,0.0,0 STARLINK-3681,1 51968U 22025N   24207.11652780  .00000770  00000-0  70619-4 0  9996,2 51968  53.0550 167.0901 0001819 117.4979 242.6195 15.06399642132763,6925.35,95.592,548.474,545.955,0.0
51968.0,STARLINK-3681,PAYLOAD,2024-07-25 07:34:24,15.064034,0.0001814,53.0552,166.1961,118.2001,241.9171,0.0001129,1.401e-05,0.0,0 STARLINK-3681,1 51968U 22025N   24207.31556458  .00001401  00000-0  11290-3 0  9994,2 51968  53.0552 166.1961 0001814 118.2001 241.9171 15.06403400131696,6925.338,95.592,548.459,545.947,0.0
51968.0,STARLINK-3681,PAYLOAD,2024-07-26 04:16:26,15.06391206,0.0001524,53.0547,162.3222,106.2014,253.9143,8.7075e-05,1.015e-05,0.0,0 STARLINK-3681,1 51968U 22025N   24208.17808492  .00001015  00000-0  87075-4 0  9993,2 51968  53.0547 162.3222 0001524 106.2014 253.9143 15.06391206132926,6925.376,95.593,548.296,546.185,0.0
51968.0,STARLINK-3681,PAYLOAD,2024-07-26 07:27:31,15.06392792,0.000149,53.0546,161.7261,104.6898,255.4256,0.00010031,1.213e-05,0.0,0 STARLINK-3681,1 51968U 22025N   24208.31077781  .00001213  00000-0  10031-3 0  9995,2 51968  53.0546 161.7261 0001490 104.6898 255.4256 15.06392792131848,6925.371,95.593,548.268,546.204,0.0
51968.0,STARLINK-3681,PAYLOAD,2024-07-26 13:49:40,15.06399192,0.000141,53.0551,160.54,95.3756,264.7393,7.994e-05,9.09e-06,0.0,0 STARLINK-3681,1 51968U 22025N   24208.57616241  .00000909  00000-0  79940-4 0  9999,2 51968  53.0551 160.5400 0001410  95.3756 264.7393 15.06399192132989,6925.351,95.592,548.193,546.24,0.0
51968.0,STARLINK-3681,PAYLOAD,2024-07-27 04:09:30,15.06412461,0.000127,53.0539,157.8567,95.8497,264.2636,8.4684e-05,9.81e-06,0.0,0 STARLINK-3681,1 51968U 22025N   24209.17327411  .00000981  00000-0  84684-4 0  9995,2 51968  53.0539 157.8567 0001270  95.8497 264.2636 15.06412461133070,6925.31,95.591,548.055,546.296,0.0
51968.0,STARLINK-3681,PAYLOAD,2024-07-28 04:02:37,15.06393656,0.0001406,53.0544,153.3888,84.2694,275.8455,-1.509e-05,-5.06e-06,0.0,0 STARLINK-3681,1 51968U 22025N   24210.16849336 -.00000506  00000-0 -15090-4 0  9991,2 51968  53.0544 153.3888 0001406  84.2694 275.8455 15.06393656133223,6925.368,95.593,548.207,546.259,0.0
51968.0,STARLINK-3681,PAYLOAD,2024-07-29 02:20:11,15.06360597,0.0001803,53.0543,149.219,100.8805,259.2387,0.00063263,9.144e-05,0.0,0 STARLINK-3681,1 51968U 22025N   24211.09735340  .00009144  00000-0  63263-3 0  9992,2 51968  53.0543 149.2190 0001803 100.8805 259.2387 15.06360597133365,6925.469,95.595,548.583,546.086,0.0
51968.0,STARLINK-3681,PAYLOAD,2024-07-29 13:28:56,15.06400979,0.000159,53.0547,147.1357,83.1287,276.9883,0.00014138,1.825e-05,0.0,0 STARLINK-3681,1 51968U 22025N   24211.56177002  .00001825  00000-0  14138-3 0  9994,2 51968  53.0547 147.1357 0001590  83.1287 276.9883 15.06400979132333,6925.346,95.592,548.312,546.109,0.0
51968.0,STARLINK-3681,PAYLOAD,2024-07-30 02:13:15,15.064004,0.0001563,53.0547,144.7507,97.9597,262.157,0.00017205,2.282e-05,0.0,0 STARLINK-3681,1 51968U 22025N   24212.09254444  .00002282  00000-0  17205-3 0  9995,2 51968  53.0547 144.7507 0001563  97.9597 262.1570 15.06400400132418,6925.347,95.592,548.295,546.13,0.0
51968.0,STARLINK-3681,PAYLOAD,2024-07-30 22:55:16,15.06399889,0.0001518,53.0546,140.8804,96.377,263.7392,3.3415e-05,2.16e-06,0.0,0 STARLINK-3681,1 51968U 22025N   24212.95505768  .00000216  00000-0  33415-4 0  9995,2 51968  53.0546 140.8804 0001518  96.3770 263.7392 15.06399889132541,6925.349,95.592,548.265,546.163,0.0
51968.0,STARLINK-3681,PAYLOAD,2024-07-31 02:06:21,15.0640618,0.0001382,53.0537,140.2865,90.8921,269.2227,8.9832e-05,1.057e-05,0.0,0 STARLINK-3681,1 51968U 22025N   24213.08774581  .00001057  00000-0  89832-4 0  9999,2 51968  53.0537 140.2865 0001382  90.8921 269.2227 15.06406180133663,6925.33,95.592,548.152,546.238,0.0
51968.0,STARLINK-3681,PAYLOAD,2024-07-31 11:39:35,15.0639923,0.000128,53.0534,138.4943,87.3136,272.7999,-3.2021e-05,-7.58e-06,0.0,0 STARLINK-3681,1 51968U 22025N   24213.48583245 -.00000758  00000-0 -32021-4 0  9995,2 51968  53.0534 138.4943 0001280  87.3136 272.7999 15.06399230133721,6925.351,95.592,548.102,546.329,0.0
51968.0,STARLINK-3681,PAYLOAD,2024-07-31 19:37:18,15.06390132,0.0001524,53.0554,137.0104,94.3742,265.7421,-4.6881e-05,-9.8e-06,0.0,0 STARLINK-3681,1 51968U 22025N   24213.81757505 -.00000980  00000-0 -46881-4 0  9990,2 51968  53.0554 137.0104 0001524  94.3742 265.7421 15.06390132133778,6925.379,95.593,548.299,546.188,0.0
51968.0,STARLINK-3681,PAYLOAD,2024-07-31 22:48:23,15.06390974,0.0001656,53.0551,136.4139,96.6926,263.4252,-3.0387e-05,-7.34e-06,0.0,0 STARLINK-3681,1 51968U 22025N   24213.95026841 -.00000734  00000-0 -30387-4 0  9998,2 51968  53.0551 136.4139 0001656  96.6926 263.4252 15.06390974132692,6925.376,95.593,548.388,546.094,0.0
51968.0,STARLINK-3681,PAYLOAD,2024-08-01 11:32:41,15.06404819,0.0001483,53.056,134.0318,100.9218,259.1938,4.9524e-05,4.56e-06,0.0,0 STARLINK-3681,1 51968U 22025N   24214.48103189  .00000456  00000-0  49524-4 0  9990,2 51968  53.0560 134.0318 0001483 100.9218 259.1938 15.06404819133874,6925.334,95.592,548.226,546.172,0.0
51968.0,STARLINK-3681,PAYLOAD,2024-08-01 22:41:27,15.06405074,0.0001445,53.055,131.9445,103.6837,256.4313,3.3465e-05,2.17e-06,0.0,0 STARLINK-3681,1 51968U 22025N   24214.94545966  .00000217  00000-0  33465-4 0  9996,2 51968  53.0550 131.9445 0001445 103.6837 256.4313 15.06405074132842,6925.333,95.592,548.199,546.197,0.0
51968.0,STARLINK-3681,PAYLOAD,2024-08-02 11:25:46,15.06407398,0.0001431,53.0542,129.5612,78.391,281.7239,5.0419e-05,4.7e-06,0.0,0 STARLINK-3681,1 51968U 22025N   24215.47623171  .00000470  00000-0  50419-4 0  9999,2 51968  53.0542 129.5612 0001431  78.3910 281.7239 15.06407398132925,6925.326,95.592,548.182,546.2,0.0
51968.0,STARLINK-3681,PAYLOAD,2024-08-02 22:34:35,15.06378391,0.0001423,53.054,127.4781,87.8419,272.2733,-5.805e-06,-3.68e-06,0.0,0 STARLINK-3681,1 51968U 22025N   24215.94068342 -.00000368  00000-0 -58050-5 0  9992,2 51968  53.0540 127.4781 0001423  87.8419 272.2733 15.06378391132998,6925.415,95.594,548.265,546.294,0.0
51968.0,STARLINK-3681,PAYLOAD,2024-08-03 01:45:39,15.06385755,0.0001649,53.0542,126.8796,95.3125,264.8052,-2.0973e-05,-5.94e-06,0.0,0 STARLINK-3681,1 51968U 22025N   24216.07337430 -.00000594  00000-0 -20973-4 0  9997,2 51968  53.0542 126.8796 0001649  95.3125 264.8052 15.06385755134116,6925.392,95.593,548.399,546.115,0.0
51968.0,STARLINK-3681,PAYLOAD,2024-08-03 17:41:02,15.06395729,0.000143,53.0539,123.9008,77.2665,282.8483,5.5572e-05,5.46e-06,0.0,0 STARLINK-3681,1 51968U 22025N   24216.73683603  .00000546  00000-0  55572-4 0  9994,2 51968  53.0539 123.9008 0001430  77.2665 282.8483 15.06395729134213,6925.362,95.592,548.217,546.236,0.0
51968.0,STARLINK-3681,PAYLOAD,2024-08-03 22:27:39,15.0640546,0.0001378,53.0532,123.0122,87.4776,272.6371,0.00012021,1.51e-05,0.0,0 STARLINK-3681,1 51968U 22025N   24216.93586812  .00001510  00000-0  12021-3 0  9993,2 51968  53.0532 123.0122 0001378  87.4776 272.6371 15.06405460133149,6925.332,95.592,548.151,546.243,0.0
